OBJECT_NAME,OBJECT_ID,EPOCH,MEAN_MOTION,ECCENTRICITY,INCLINATION,RA_OF_ASC_NODE,ARG_OF_PERICENTER,MEAN_ANOMALY,EPHEMERIS_TYPE,CLASSIFICATION_TYPE,NORAD_CAT_ID,ELEMENT_SET_NO,REV_AT_EPOCH,BSTAR,MEAN_MOTION_DOT,MEAN_MOTION_DDOT
TERRA,1999-068A,2021-12-16T23:09:49.329792,14.57134521,.0001341,98.1595,61.8772,99.9791,16.0063,0,U,25994,999,16992,.3202E-4,.1E-5,0
TERRA,1999-068A,2021-12-16T23:25:25.433184,14.57134495,.0001339,98.1595,61.8877,101.2334,71.5533,0,U,25994,999,17004,.4966E-4,.179E-5,0
TERRA,1999-068A,2021-12-17T05:31:10.588224,14.57134791,.0001339,98.1595,62.1365,101.0600,323.3146,0,U,25994,999,17008,.67468E-4,.259E-5,0
TERRA,1999-068A,2021-12-17T10:26:58.294752,14.57134622,.0001344,98.1596,62.3377,100.9900,320.2790,0,U,25994,999,17011,.34196E-4,.109E-5,0
TERRA,1999-068A,2021-12-17T19:04:11.400096,14.57134634,.0001336,98.1595,62.6896,100.4829,43.8117,0,U,25994,999,17004,.35375E-4,.115E-5,0
TERRA,1999-068A,2021-12-17T19:04:11.400096,14.57134634,.0001336,98.1595,62.6896,100.4829,43.8117,0,U,25994,999,17016,.35375E-4,.115E-5,0
TERRA,1999-068A,2021-12-18T02:54:50.588640,14.57134759,.0001327,98.1595,63.0098,100.1734,317.6182,0,U,25994,999,17021,.34229E-4,.109E-5,0
TERRA,1999-068A,2021-12-18T10:56:17.517120,14.57134929,.0001328,98.1594,63.3373,100.0761,270.5161,0,U,25994,999,17026,.37772E-4,.125E-5,0
TERRA,1999-068A,2021-12-18T13:03:07.362144,14.57134991,.0001325,98.1594,63.4236,99.9306,12.4116,0,U,25994,999,17015,.37275E-4,.123E-5,0
TERRA,1999-068A,2021-12-18T19:38:35.517696,14.57135108,.0001323,98.1594,63.6926,99.7885,12.3307,0,U,25994,999,17031,.39123E-4,.132E-5,0
TERRA,1999-068A,2021-12-18T23:13:02.666208,14.57135254,.0001331,98.1593,63.8385,99.9880,72.8844,0,U,25994,999,17021,.47123E-4,.168E-5,0
TERRA,1999-068A,2021-12-19T03:37:57.385632,14.57135296,.0001332,98.1593,64.0187,100.0909,317.2412,0,U,25994,999,17036,.44514E-4,.156E-5,0
TERRA,1999-068A,2021-12-19T11:39:29.958624,14.57135475,.0001339,98.1592,64.3462,100.0005,270.4752,0,U,25994,999,17041,.47095E-4,.167E-5,0
TERRA,1999-068A,2021-12-19T13:51:28.196352,14.57135514,.0001336,98.1592,64.4360,99.8966,31.0419,0,U,25994,999,17030,.46846E-4,.166E-5,0
TERRA,1999-068A,2021-12-19T18:42:36.470592,14.57135583,.0001333,98.1592,64.6341,99.8219,11.0568,0,U,25994,999,17045,.4648E-4,.165E-5,0
TERRA,1999-068A,2021-12-19T22:01:38.409888,14.57135822,.0001332,98.1591,64.7695,99.7691,15.7232,0,U,25994,999,17035,.5382E-4,.198E-5,0
TERRA,1999-068A,2021-12-20T04:19:56.826048,14.57135976,.0001333,98.1591,65.0268,99.8952,312.8924,0,U,25994,999,17051,.55106E-4,.204E-5,0
TERRA,1999-068A,2021-12-20T10:56:18.079584,14.57136263,.0001337,98.1591,65.2964,99.7768,316.0109,0,U,25994,999,17055,.61493E-4,.232E-5,0
TERRA,1999-068A,2021-12-20T12:49:30.369792,14.57136135,.000134,98.1591,65.3734,99.7912,8.1388,0,U,25994,999,17044,.55091E-4,.204E-5,0
TERRA,1999-068A,2021-12-20T22:43:26.333184,14.57136315,.0001345,98.1590,65.7774,99.7506,10.4999,0,U,25994,999,17050,.5505E-4,.203E-5,0
TERRA,1999-068A,2021-12-21T03:24:47.769120,14.57136395,.0001345,98.1589,65.9688,99.7769,314.8061,0,U,25994,999,17065,.54001E-4,.199E-5,0
TERRA,1999-068A,2021-12-21T11:39:52.081344,14.57136576,.0001352,98.1589,66.3056,99.7021,317.2807,0,U,25994,999,17070,.55178E-4,.204E-5,0
TERRA,1999-068A,2021-12-21T13:40:31.268640,14.57136529,.0001352,98.1589,66.3876,99.6831,36.5594,0,U,25994,999,17059,.51431E-4,.187E-5,0
TERRA,1999-068A,2021-12-21T20:10:19.332192,14.57136624,.000135,98.1588,66.6528,99.5150,15.8698,0,U,25994,999,17075,.50159E-4,.181E-5,0
TERRA,1999-068A,2021-12-21T21:49:23.255616,14.57136672,.0001349,98.1588,66.7202,99.4530,16.5976,0,U,25994,999,17064,.5114E-4,.186E-5,0
TERRA,1999-068A,2021-12-22T04:07:25.446720,14.57136825,.0001351,98.1587,66.9773,99.5822,312.7801,0,U,25994,999,17080,.52182E-4,.19E-5,0
TERRA,1999-068A,2021-12-22T12:23:38.184288,14.57137118,.0001355,98.1587,67.3148,99.4325,319.4822,0,U,25994,999,17073,.58024E-4,.217E-5,0
TERRA,1999-068A,2021-12-22T12:23:38.184288,14.57137118,.0001355,98.1587,67.3148,99.4325,319.4822,0,U,25994,999,17085,.58024E-4,.217E-5,0
TERRA,1999-068A,2021-12-22T19:13:28.394112,14.57137359,.0001357,98.1587,67.5936,99.2582,11.7437,0,U,25994,999,17089,.6065E-4,.229E-5,0
TERRA,1999-068A,2021-12-22T20:57:56.333952,14.57137265,.0001359,98.1587,67.6647,99.2636,32.0648,0,U,25994,999,17078,.55657E-4,.206E-5,0
TERRA,1999-068A,2021-12-23T04:51:50.015808,14.57137411,.0001357,98.1586,67.9870,99.1877,317.4421,0,U,25994,999,17095,.54583E-4,.201E-5,0
TERRA,1999-068A,2021-12-23T11:46:18.480288,14.57137709,.000136,98.1586,68.2689,99.0258,26.5754,0,U,25994,999,17099,.60947E-4,.23E-5,0
TERRA,1999-068A,2021-12-23T13:20:03.130656,14.57137748,.0001358,98.1586,68.3327,98.9172,7.9771,0,U,25994,999,17088,.61742E-4,.234E-5,0
TERRA,1999-068A,2021-12-23T21:35:37.928256,14.57137768,.0001358,98.1585,68.6698,98.7767,12.3689,0,U,25994,999,17093,.54468E-4,.201E-5,0
TERRA,1999-068A,2021-12-24T03:48:52.504992,14.57137930,.0001361,98.1585,68.9236,98.8628,291.1436,0,U,25994,999,17109,.54833E-4,.202E-5,0
TERRA,1999-068A,2021-12-24T12:10:32.232864,14.57138263,.0001367,98.1585,69.2649,98.8680,317.5336,0,U,25994,999,17114,.60824E-4,.229E-5,0
TERRA,1999-068A,2021-12-24T14:11:25.461024,14.57138293,.0001367,98.1585,69.3471,98.7728,37.7411,0,U,25994,999,17103,.59783E-4,.225E-5,0
TERRA,1999-068A,2021-12-24T19:00:48.013632,14.57138342,.0001364,98.1585,69.5439,98.6317,11.4094,0,U,25994,999,17118,.56596E-4,.21E-5,0
TERRA,1999-068A,2021-12-24T22:35:52.664064,14.57138265,.0001363,98.1584,69.6902,98.6082,74.4629,0,U,25994,999,17108,.50821E-4,.184E-5,0
TERRA,1999-068A,2021-12-25T04:30:59.266080,14.57138414,.0001359,98.1584,69.9317,98.4957,287.4203,0,U,25994,999,17124,.51494E-4,.187E-5,0
TERRA,1999-068A,2021-12-25T11:14:44.338272,14.57138709,.000136,98.1584,70.2064,98.3604,317.4882,0,U,25994,999,17128,.58341E-4,.218E-5,0
TERRA,1999-068A,2021-12-25T13:08:58.643808,14.57138790,.0001362,98.1584,70.2841,98.3090,13.4465,0,U,25994,999,17117,.59436E-4,.223E-5,0
TERRA,1999-068A,2021-12-25T21:17:13.994592,14.57138887,.0001362,98.1584,70.6162,98.1657,351.1775,0,U,25994,999,17122,.56399E-4,.209E-5,0
TERRA,1999-068A,2021-12-26T05:24:37.734336,14.57139120,.0001368,98.1583,70.9477,98.3649,325.4348,0,U,25994,999,17139,.5811E-4,.217E-5,0
TERRA,1999-068A,2021-12-26T13:57:00.382752,14.57139226,.0001378,98.1583,71.2962,98.3864,30.8210,0,U,25994,999,17132,.52607E-4,.192E-5,0
TERRA,1999-068A,2021-12-26T18:48:09.432000,14.57139279,.0001375,98.1583,71.4942,98.3270,10.8703,0,U,25994,999,17147,.50036E-4,.181E-5,0
TERRA,1999-068A,2021-12-26T22:07:34.702752,14.57139217,.0001376,98.1583,71.6299,98.3520,16.8760,0,U,25994,999,17137,.45118E-4,.159E-5,0
TERRA,1999-068A,2021-12-27T04:19:00.419808,14.57139369,.0001375,98.1583,71.8825,98.3498,289.1350,0,U,25994,999,17153,.45746E-4,.161E-5,0
TERRA,1999-068A,2021-12-27T10:49:52.697568,14.57139689,.0001375,98.1583,72.1484,98.2390,272.2877,0,U,25994,999,17157,.5437E-4,.2E-5,0
TERRA,1999-068A,2021-12-27T12:56:52.690272,14.57139707,.0001375,98.1583,72.2348,98.1914,14.7026,0,U,25994,999,17146,.51985E-4,.19E-5,0
TERRA,1999-068A,2021-12-27T19:31:35.946336,14.57139812,.0001374,98.1582,72.5033,98.0278,11.9233,0,U,25994,999,17162,.49442E-4,.178E-5,0
TERRA,1999-068A,2021-12-27T21:15:18.401760,14.57139977,.0001376,98.1582,72.5738,98.0119,29.5071,0,U,25994,999,17151,.54387E-4,.2E-5,0
TERRA,1999-068A,2021-12-28T03:30:46.336896,14.57140106,.0001374,98.1582,72.8292,97.9926,316.4811,0,U,25994,999,17167,.53082E-4,.195E-5,0
TERRA,1999-068A,2021-12-28T10:16:59.471904,14.57140176,.0001375,98.1582,73.1055,97.9246,355.4670,0,U,25994,999,17171,.528E-4,.193E-5,0
TERRA,1999-068A,2021-12-28T13:46:03.568224,14.57140353,.0001375,98.1582,73.2477,97.7950,36.7503,0,U,25994,999,17161,.5688E-4,.212E-5,0
TERRA,1999-068A,2021-12-28T21:55:19.756704,14.57140407,.0001377,98.1581,73.5804,97.7826,18.0437,0,U,25994,999,17166,.52825E-4,.193E-5,0
TERRA,1999-068A,2021-12-29T02:36:21.939264,14.57140508,.0001377,98.1581,73.7716,97.8506,321.1429,0,U,25994,999,17181,.52771E-4,.193E-5,0
TERRA,1999-068A,2021-12-29T10:49:56.328960,14.57140676,.000138,98.1581,74.1073,97.7369,318.2050,0,U,25994,999,17186,.53758E-4,.198E-5,0
TERRA,1999-068A,2021-12-29T12:47:44.515104,14.57140717,.0001381,98.1581,74.1874,97.6839,27.1431,0,U,25994,999,17175,.52468E-4,.192E-5,0
TERRA,1999-068A,2021-12-29T21:03:44.912160,14.57140828,.0001382,98.1580,74.5247,97.5767,33.0587,0,U,25994,999,17180,.49312E-4,.178E-5,0
TERRA,1999-068A,2021-12-30T03:27:13.713408,14.57140934,.0001382,98.1579,74.7856,97.6416,349.1273,0,U,25994,999,17196,.47195E-4,.168E-5,0
TERRA,1999-068A,2021-12-30T11:33:07.056288,14.57141143,.0001384,98.1579,75.1161,97.3495,318.3930,0,U,25994,999,17189,.50782E-4,.184E-5,0
TERRA,1999-068A,2021-12-30T20:03:13.863168,14.57141161,.0001387,98.1579,75.4630,97.3159,15.5940,0,U,25994,999,17206,.43987E-4,.154E-5,0
TERRA,1999-068A,2021-12-30T21:41:33.423648,14.57141139,.0001386,98.1578,75.5299,97.3082,13.5766,0,U,25994,999,17195,.42576E-4,.147E-5,0
TERRA,1999-068A,2021-12-31T04:00:53.877600,14.57141273,.0001387,98.1578,75.7879,97.3259,314.6236,0,U,25994,999,17211,.43285E-4,.15E-5,0
TERRA,1999-068A,2021-12-31T12:16:54.183072,14.57141369,.0001391,98.1578,76.1252,97.3167,320.4361,0,U,25994,999,17216,.4306E-4,.149E-5,0
TERRA,1999-068A,2021-12-31T14:17:25.056096,14.57141419,.0001391,98.1577,76.2072,97.2781,39.2316,0,U,25994,999,17205,.4384E-4,.153E-5,0
TERRA,1999-068A,2021-12-31T19:06:50.555808,14.57141484,.0001388,98.1577,76.4040,97.0555,13.1626,0,U,25994,999,17220,.42399E-4,.146E-5,0
TERRA,1999-068A,2021-12-31T22:18:24.865344,14.57141485,.0001388,98.1577,76.5343,97.0201,350.6527,0,U,25994,999,17210,.40506E-4,.138E-5,0
TERRA,1999-068A,2022-01-01T04:45:22.607712,14.57141622,.0001385,98.1576,76.7975,97.0062,319.4792,0,U,25994,999,17226,.40867E-4,.139E-5,0
TERRA,1999-068A,2022-01-01T11:39:58.620960,14.57141799,.0001388,98.1576,77.0795,96.9148,29.0042,0,U,25994,999,17230,.44134E-4,.154E-5,0
